{
    "links": {
        "self": "http://www.neowsapp.com/rest/v1/neo/3508121?api_key=iIulBulltgU6a56xZRHN4H3l9WmuAYTsLGpBGhQ2"
    },
    "id": "3508121",
    "neo_reference_id": "3508121",
    "name": "(2010 CR19)",
    "designation": "2010 CR19",
    "nasa_jpl_url": "http://ssd.jpl.nasa.gov/sbdb.cgi?sstr=3508121",
    "absolute_magnitude_h": 26.4,
    "estimated_diameter": {
        "kilometers": {
            "estimated_diameter_min": 0.0139493823,
            "estimated_diameter_max": 0.0311917671
        },
        "meters": {
            "estimated_diameter_min": 13.9493822934,
            "estimated_diameter_max": 31.1917670523
        },
        "miles": {
            "estimated_diameter_min": 0.0086677416,
            "estimated_diameter_max": 0.0193816595
        },
        "feet": {
            "estimated_diameter_min": 45.7656914036,
            "estimated_diameter_max": 102.3351970157
        }
    },
    "is_potentially_hazardous_asteroid": false,
    "close_approach_data": [
        {
            "close_approach_date": "2010-02-16",
            "close_approach_date_full": "2010-Feb-16 23:23",
            "epoch_date_close_approach": 1266362580000,
            "relative_velocity": {
                "kilometers_per_second": "14.1347846888",
                "kilometers_per_hour": "50885.2248795284",
                "miles_per_hour": "31618.0998702825"
            },
            "miss_distance": {
                "astronomical": "0.0712372789",
                "lunar": "27.7113014921",
                "kilometers": "10656945.188035943",
                "miles": "6621918.6773962934"
            },
            "orbiting_body": "Earth"
        }
    ],
    "orbital_data": {
        "orbit_id": "6",
        "orbit_determination_date": "2017-04-06 08:58:24",
        "first_observation_date": "2010-02-15",
        "last_observation_date": "2010-02-15",
        "data_arc_in_days": null,
        "observations_used": 17,
        "orbit_uncertainty": "9",
        "minimum_orbit_intersection": ".0701175",
        "jupiter_tisserand_invariant": "4.719",
        "epoch_osculation": "2455242.5",
        "eccentricity": ".2565487151301382",
        "semi_major_axis": "1.360647304210526",
        "inclination": "25.07863905365707",
        "ascending_node_longitude": "324.9467125601279",
        "orbital_period": "579.7179865935726",
        "perihelion_distance": "1.011574986570029",
        "perihelion_argument": "219.7609499668392",
        "aphelion_distance": "1.709719621851022",
        "perihelion_time": "2455279.680187293761",
        "mean_anomaly": "336.9114160069389",
        "mean_motion": ".6209915999249269",
        "equinox": "J2000",
        "orbit_class": {
            "orbit_class_type": "APO",
            "orbit_class_description": "Near-Earth asteroid orbits which cross the Earth’s orbit similar to that of 1862 Apollo",
            "orbit_class_range": "a (semi-major axis) > 1.0 AU; q (perihelion) < 1.017 AU"
        }
    },
    "is_sentry_object": false
}